UNKNOWN                 
1 87541U 70025    22276.54694743  .00000362  00000+0  79481-3 0  9992
2 87541  99.8450 165.1775 0058607 196.0289 284.1019 13.34982082426394
UNKNOWN                 
1 87553U 76126    22275.72437327  .00002957  00000+0  10277-2 0  9994
2 87553  65.6712 274.3874 0732101  23.5451 339.7378 13.42774256433962
UNKNOWN                 
1 87557U 73086    22274.89627911  .00002649  00000+0  71990-2 0  9994
2 87557 101.7878 332.2870 0061001  64.8411 295.9007 13.14618976410859
UNKNOWN                 
1 87561U 76077    22276.44886189 -.00000024  00000+0  16600-3 0  9993
2 87561 102.1561 343.5118 0175120 263.2705 109.1504 12.32129224398795
UNKNOWN                 
1 87565U 99025    22276.42896206  .00001277  00000+0  76961-3 0  9990
2 87565  99.9175 149.1217 0182529  76.5673 285.5760 14.00787758452875
UNKNOWN                 
1 87569U 99025    22276.59336874 -.00000019  00000+0  14786-3 0  9993
2 87569 101.8460  39.6983 0055804  28.2896  39.1464 12.68481469410609
UNKNOWN                 
1 87587U 93036    22268.28429791  .00000139  00000+0  53531-4 0  9991
2 87587  74.0229 112.6227 0019852  72.8231 287.5094 14.38965495464812
UNKNOWN                 
1 87590U 99025    22266.88359447  .00000339  00000+0  22506-3 0  9992
2 87590  98.9319 308.0301 0027053 357.7009 175.4121 14.07882562989665
UNKNOWN                 
1 87616U 76067    22274.32362854  .00000465  00000+0  17183-2 0  9990
2 87616  66.0357 282.5840 0650631 275.5663  91.1147 12.45116206390677
UNKNOWN                 
1 87624U 99025    22275.84446840  .00002457  00000+0  53909-3 0  9994
2 87624  98.7456 140.1499 0127046 241.0953 117.7449 14.53714545409959
UNKNOWN                 
1 87642U          22254.02075377  .00043887  00000+0  18783-2 0  9991
2 87642  62.2234 158.6063 0113626 331.4010  28.0886 15.16802555473091
UNKNOWN                 
1 87650U          22275.03338117  .00010366  00000+0  38060-2 0  9994
2 87650 100.2604 193.0526 0059642   8.7311 351.4890 14.31964348 19332
UNKNOWN                 
1 87656U          22266.72747418  .00015754  00000+0  31044-2 0  9995
2 87656  99.1394  66.2268 0016563 279.1813  80.7512 14.62522801828812
UNKNOWN                 
1 87664U 75052    22275.38127781 -.00000204  00000+0 -45188-3 0  9991
2 87664  99.7280 249.4300 0214256 122.4234  35.8371 13.06291359388902
UNKNOWN                 
1 87672U 93016    22275.60805359  .00002293  00000+0  10945-2 0  9999
2 87672  70.8638 348.7445 0066737 246.0206 113.3921 14.19133393458406
UNKNOWN                 
1 87681U          22276.56866636  .00001206  00000+0  13740-2 0  9990
2 87681  66.7394 332.0864 0168669 213.8799 145.1403 13.67500871442183
UNKNOWN                 
1 87690U 76126    22276.20351413  .00004353  00000+0  69864-3 0  9990
2 87690  65.7985  95.3785 0680404 272.1360  80.1997 13.79619904445301
UNKNOWN                 
1 87706U          22276.21442196  .00004319  00000+0  10292-2 0  9998
2 87706  98.5665  43.6882 0133939 240.0823 239.7184 14.48958155408766
UNKNOWN                 
1 87725U 81053    22276.17058347  .00006263  00000+0  19950-2 0  9992
2 87725  82.8979 175.8165 0026327 190.4754 169.5893 14.39513153463859
UNKNOWN                 
1 87727U 92093    22276.32414531  .00131345  00000+0  14589-1 0  9990
2 87727  70.9799  31.6510 0018551   9.3738 350.7765 14.86287620471166
UNKNOWN                 
1 87730U          22272.43593270  .00000087  00000+0  75610-4 0  9990
2 87730  82.9488  19.8205 0030310  27.3290 332.9452 13.74214452424585
UNKNOWN                 
1 87737U 99025    22276.57767405  .00000023  00000+0  70679-4 0  9994
2 87737  99.5435 147.7023 0133437 341.1358  18.4872 13.72047019443925
UNKNOWN                 
1 87764U 76126    22276.16448104  .00005143  00000+0  10533-2 0  9997
2 87764  65.6735  58.4794 0488047 297.8146 242.3017 14.06570267453527
UNKNOWN                 
1 87771U 75052    22276.20719805  .00000097  00000+0  34642-3 0  9997
2 87771 100.6947  72.2546 0120566 126.0355 235.2001 13.19089088381267
UNKNOWN                 
1 87782U 73086    22275.99876657  .00001834  00000+0  69970-2 0  9999
2 87782 102.3958 345.9198 0054738  77.4529 283.2677 12.91762174416851
UNKNOWN                 
1 87817U 68097    22273.08854318  .00103212  00000+0  30444-2 0  9999
2 87817  62.7546 201.9616 0139501  73.1997 288.4362 15.25282574510788
UNKNOWN                 
1 87843U 70025    22273.27338867  .00001218  00000+0  30981-2 0  9998
2 87843  99.6766 114.1126 0241302 213.2949 145.2784 13.10783175410634
UNKNOWN                 
1 87845U          22275.45509498  .00001063  00000+0  21283-2 0  9991
2 87845  98.8453  89.7093 0585828  52.1278 313.1348 12.84965643415087
UNKNOWN                 
1 87878U          22275.81076680  .00001909  00000+0  75524-3 0  9996
2 87878  99.2158 308.9333 0042581  62.1778 298.3707 14.29731737444006
UNKNOWN                 
1 87883U 99025    22266.47222094  .00000591  00000+0  22797-3 0  9991
2 87883  99.2044 166.3779 0298030  81.6320 281.8518 14.12461531406118
UNKNOWN                 
1 87884U 99025    22271.58519545  .00000362  00000+0  22536-3 0  9997
2 87884  98.6214  48.1027 0157740 124.3162 237.3050 14.04559911453889
UNKNOWN                 
1 87898U 99025    22276.59261451  .00006897  00000+0  23820-2 0  9993
2 87898  98.9052 147.2224 0131900  69.7547 291.7760 14.31321312460855
UNKNOWN                 
1 87934U          22269.79058200  .00000059  00000+0  46944-4 0  9997
2 87934  82.9324  86.3544 0031863  57.8017 316.4491 13.72833936443363
UNKNOWN                 
1 87942U          22276.21350084  .00012460  00000+0  12012-2 0  9992
2 87942  99.0909 263.3552 0131564 252.5754 118.5185 14.86738513472237
UNKNOWN                 
1 87972U 99025    22274.04472671  .00011863  00000+0  38165-2 0  9999
2 87972  98.7991 203.8536 0152538 202.0251 157.4331 14.33018831408380
UNKNOWN                 
1 87991U 77065    22275.68828670 -.00000765  00000+0 -16877-2 0  9992
2 87991  28.6202 100.2823 0911962  31.4945 333.7053 12.30008790378941
UNKNOWN                 
1 87998U 99025    22264.33688577  .00000516  00000+0  32510-3 0  9994
2 87998  98.6863 302.1056 0027042 353.3590   6.7218 14.08326866382857
UNKNOWN                 
1 89003U          22274.90037017  .00000264  00000+0  10214-3 0  9996
2 89003  74.0483 355.1934 0016404 338.6767  21.3699 14.34820581463978
UNKNOWN                 
1 89005U          22276.18999785  .00004352  00000+0  11609-2 0  9999
2 89005  97.9550 178.2578 0219963 347.2927  12.2768 14.35499641366187
UNKNOWN                 
1 89029U          22275.88617151  .00002562  00000+0  34649-3 0  9996
2 89029  98.1929 135.7071 0030409 162.2127 198.0155 14.79623122477799
UNKNOWN                 
1 89048U          22276.54608092  .00073185  00000+0  11451-1 0  9998
2 89048  99.0457 184.5805 0016337 334.7551  25.2853 14.72267177468393
UNKNOWN                 
1 89067U          22276.05735235  .00023590  00000+0  71690-3 0  9993
2 89067  80.9860 140.3973 0550058 296.6801  57.9076 14.50885147412885
UNKNOWN                 
1 89074U          22276.39478141  .00003254  00000+0  37602-2 0  9997
2 89074 100.2964 315.3912 0052982  92.1467 282.4510 13.69403188429258
UNKNOWN                 
1 89101U          22275.74855417  .00000452  00000+0  14817-2 0  9991
2 89101 100.3161 241.1443 0146776 194.2179 165.4774 13.03668344402767
UNKNOWN                 
1 89123U          22273.74612888  .00004705  00000+0  21963-2 0  9991
2 89123  99.0657  17.7933 0060725 353.2658   6.7695 14.19899119361053
UNKNOWN                 
1 89132U          22275.11503620  .00009640  00000+0  87835-2 0  9990
2 89132  63.4416 315.1335 3055126 320.3533  20.9048  8.74146077222273
UNKNOWN                 
1 89135U          22275.69084649  .00004561  00000+0  21435-2 0  9992
2 89135  71.0642 258.3191 0137705 226.7395 132.2172 14.15649825456563
UNKNOWN                 
1 89142U          22276.42536725  .00011229  00000+0  19199-1 0  9991
2 89142  64.7887 325.2434 2926914  75.7405 314.7515  8.80641303  9783
UNKNOWN                 
1 89146U          22276.04087458  .00003085  00000+0  75895-3 0  9995
2 89146  98.1890 207.2418 0119482  64.2058 297.1406 14.48705714459209
UNKNOWN                 
1 89161U          22276.53463708  .00008428  00000+0  11280-2 0  9995
2 89161  97.7289 298.9280 0128576 358.2799   1.7951 14.74039454374412
UNKNOWN                 
1 89171U          22275.69356228  .00242850  00000+0  76782-2 0  9997
2 89171  98.9905 175.4225 0028809  66.6023 293.8238 15.31384226380331
UNKNOWN                 
1 89172U 81053    22275.76675261  .00003708  00000+0  88917-3 0  9995
2 89172  82.0808 203.8137 0409596 167.6217 193.5406 14.12666185612986
UNKNOWN                 
1 89177U          22272.72161713  .00000079  00000+0  68472-4 0  9991
2 89177  82.9208  56.3824 0033099 155.3883 204.8861 13.73441075902340
UNKNOWN                 
1 89183U          22276.01135326  .00000682  00000+0  65830-3 0  9999
2 89183  99.2054 199.8639 0134613  16.1320 344.4056 13.79441380445993
UNKNOWN                 
1 89184U          22276.49498309  .00006054  00000+0  18838-2 0  9999
2 89184  98.4730 112.1331 0018755 117.3428 242.9673 14.41203762322434
UNKNOWN                 
1 89195U          22274.63234822  .00002919  00000+0  12534-2 0  9996
2 89195  98.7681 341.9607 0030698  37.8676 322.4655 14.25260447360838
UNKNOWN                 
1 89206U          22276.51526723  .00005512  00000+0  22583-2 0  9999
2 89206  98.7021 301.2530 0027110 337.7015  22.2985 14.27342477319300
UNKNOWN                 
1 89213U          22274.22914043  .00000546  00000+0  38549-3 0  9991
2 89213  98.8742 187.1463 0234218  81.9710 280.7953 13.89340123290288
UNKNOWN                 
1 89218U          22275.74327646  .00001484  00000+0  14012-2 0  9991
2 89218 100.3906 100.2112 0105730 140.5201 220.3712 13.80696627432324
UNKNOWN                 
1 89251U          22276.29179947  .00001395  00000+0  12020-2 0  9996
2 89251  62.5170  15.2275 3039414 358.0321   1.0459  8.78786792268283
